#dP2022  4 18 12  0  0.00000000      96 __u+U ITR00 EXT  IAC
## 2206 129600.00000000   900.00000000 59687 0.5000000000000
+  117   C06C07C08C09C10C11C12C13C14C16C19C20C21C22C23C24C25
+        C26C27C28C29C30C32C33C34C35C36C37C38C39C40C41C42C43
+        C44C45C46E01E02E03E04E05E07E08E09E10E11E12E13E14E15
+        E18E19E21E24E25E26E27E30E31E33E34E36G01G02G03G04G05
+        G06G07G08G09G10G11G12G13G14G15G16G17G18G19G20G21G22
+        G23G24G25G26G27G28G29G30G31G32J02J03R01R02R03R04R05
+        R07R08R09R11R12R13R14R15R17R18R19R20R21R22R24  0  0
++        11  8 10 11  9  7 10 10  8 11  8 10  9  9  9  8  8
++         8  8  9  8  8  8  8 10 10  8  9 11 11  9  9  8  9
++         9  9  8  8  9  9  9  7  8  8  8  7  7  7  8  7  8
++         9  8  7  8  8  9  8  9  9  9  8  7  7  9  8  8  7
++         8  7  8  9  8  8  8  8  8  8  9  8  7  8  8  8  8
++         8  8  7  8  8  9  8  8  9  9 10 10  7 10  8 10  9
++         9  8  9  8  7  8 10  8  7  8  8  9  8 10  9  0  0
%c M  cc GPS ccc cccc cccc cccc cccc ccccc ccccc ccccc ccccc
%c cc cc ccc ccc cccc cccc cccc cccc ccccc ccccc ccccc ccccc
%f  0.0000000  0.000000000  0.00000000000  0.000000000000000
%f  0.0000000  0.000000000  0.00000000000  0.000000000000000
%i    0    0    0    0      0      0      0      0         0
%i    0    0    0    0      0      0      0      0         0
/* IAC                                ULTRA-RAPID PREDICTION
/* S/V CLOCKS ARE ALIGNED TO GNSS TIME                      
/* G:C1WC2W R:C1PC2P E:C1XC5X C:C2IC6I J:C1CC2S             
/* PCV:IGS14_2196 OL/AL:FES2004  NONE     YN ORB:CoN CLK:CoN
*  2022 04 19  1 15  0.00000000
PC06 -18038.616542  35543.323503  13444.922051   -178.831569
PC07  -3778.037068  35526.477568  22501.924692    -76.305545
PC08 -10423.208088  19226.070280 -36055.546747    266.729946
PC09  -9839.456328  34040.694049  22816.324132   -709.290771
PC10   3148.221966  38805.558315  17019.173440    135.752452
PC11 -14084.475364  23286.295301  -6174.157550    300.335635
PC12 -21162.785000  14345.964409  11223.361467   -626.820794
PC13     20.815207  22394.018049 -35573.352070    -56.743368
PC14  -2980.408509  22497.843971 -16251.418195    459.774934
PC16 -19657.690538  35393.748341  11459.526437    121.078316
PC19  -4402.460009 -26228.067054   8447.773904    877.070126
PC20   8741.098788 -16454.761898  20784.853939   -882.783956
PC21 -17454.064244  -3849.066266 -21400.609863   -137.465443
PC22 -15517.336750 -21207.457896  -9338.576465   -968.974338
PC23  20196.213229  13152.295782  14067.475053   -932.227708
PC24 -19598.131913   9720.397074  17327.772681   -954.783810
PC25   1923.506608  16431.283838  22463.882083   -748.992767
PC26 -27711.155601   -970.454006   3300.285856    749.808881
PC27  20686.280908  -6089.743433 -17745.971104    710.006442
PC28  10848.216495  11749.001926 -22870.528702     56.912549
PC29   4921.829351 -23368.837282  14432.444167    543.232820
PC30  18206.132223 -20959.180865  -2977.895761    497.161185
PC32  17532.017982   3772.303366  21406.099241   -963.024362
PC33   4541.232788  26212.348497  -8450.197992   -967.352352
PC34 -17764.279957  21410.660503   1972.593525   -422.481230
PC35 -10571.428319 -12274.063406  22714.468947    235.183246
PC36   -967.700556 -16425.551319 -22518.364733   -964.038472
PC37  27704.712764   2383.627783  -2201.060504   -921.879254
PC38 -18479.469718  19280.291448 -32632.689308    226.133903
PC39 -22273.342919  35411.441317   4492.401713     34.945328
PC40  -7020.575136  32097.875887  26495.700954    262.005533
PC41  15482.639559  21433.076534   8986.836687   -967.055468
PC42  -9360.829430  15631.340327 -21093.357383   -953.300234
PC43  -5498.970412  23563.928125 -13889.966105   -929.139127
PC44 -20465.640500   6535.925135  17775.396619    632.282171
PC45 -20447.104987 -12952.499453 -13908.187368    734.959317
PC46  18256.493261 -10470.255445 -18307.508268   -279.350588
PE01  -2964.252616 -20474.561644 -21176.732813   -619.064501
PE02   3115.169896  20518.454267  21093.002400    293.724303
PE03  -3167.847265  29422.400363    935.943383   -549.463809
PE04  -9643.376704 -21801.306637 -17534.509661  -1009.573038
PE05 -14378.356044  19880.497079 -16552.215214   -189.544486
PE07  17068.575542   1091.682341  24169.073881   -660.003700
PE08   9806.591435  21505.302478  17832.545048   -514.696636
PE09 -16943.762487   -792.575089 -24249.521084   -489.068223
PE10 -21710.475460  -4487.277454  19602.621610   -507.586827
PE11 -27012.005341   3176.042262  11642.802003   3918.713265
PE12 -13263.737309 -11277.467095  23930.731213   4655.948595
PE13  26797.153138  -2773.424805 -12277.548214    428.117958
PE14  13969.743119  18347.220807 -22836.341838  -1818.984463
PE15  13147.584474  11248.384139 -24014.910566    750.832839
PE18 -12959.829911  -8288.536691  18003.891993  -1548.316494
PE19   4863.767626 -29164.680854   1434.499740  -3247.359540
PE21  14847.855358  -9116.496385 -23933.150531   -729.266350
PE24 -25401.766704  -9265.745182  12057.562518   -568.589200
PE25 -15078.275155   8887.821262  23873.188324   -570.898747
PE26  24113.959484 -15456.011246   7484.966823  -1046.415717
PE27  25248.109078   8146.987827 -13116.518714   -279.416319
PE30  19991.885328  20897.431082   6256.218057   -441.996064
PE31 -20710.993132 -20471.617086  -5321.920908   -495.286774
PE33   8211.925528 -18580.324612  21537.188002   -457.480946
PE34  -7944.589790  18572.731169 -21643.384175   -512.768343
PE36 -24606.936006  15061.839599  -6584.345359   -361.644678
PG01   2425.692051  14593.987955 -22336.511244    381.866261
PG02  18547.056596 -15469.267208  11866.840780   -653.167991
PG03  10325.010353  21496.478590 -11918.159900   -212.190077
PG04    547.374322  24306.834270  10598.687956   -174.762071
PG05   4080.153056 -15857.648101  20720.471105    -78.804886
PG06  25931.978255  -5368.990409  -2494.500871    271.783207
PG07  18791.745667   7936.305380  17661.054959    320.567742
PG08  -5353.003709  25798.078368  -1030.282034    -64.509284
PG09   9132.069079  17073.426921  18100.644437   -342.796916
PG10 -21543.586533  -8604.138856 -13048.378710   -384.037390
PG11  19890.521923 -12887.491191  11970.449690    -37.708093
PG12  -5546.270326 -21597.897683 -14789.850191   -202.485451
PG13  13220.387791 -22197.171842   5610.673853    296.623323
PG14  21382.629392   9855.351494 -12377.073153   -103.448527
PG15   1744.333756 -26276.375811  -2096.308632    -67.862541
PG16  -9643.813347  11528.772488  21593.180007   -493.016099
PG17  15218.776973   -408.118835 -21343.698377    602.117723
PG18 -18102.556327  -7903.813006  17799.798442    192.019842
PG19  16756.151921  -7353.505013 -19439.316152    146.203618
PG20  12946.777128  -9585.209725  21087.769977    515.761112
PG21  -8843.429191  16551.045672 -17872.748206    160.551264
PG22 -16523.939083  10894.761513 -17212.093676    245.572496
PG23 -20813.686577 -16270.205437  -3236.891024    -15.972994
PG24   1300.208494 -16787.091958 -20759.899742    254.608696
PG25 -17122.302919 -20214.911596  -3698.047844    313.784366
PG26 -18265.187242   2617.234105  19123.781552    199.628371
PG27 -12422.711448  20885.806631  10019.958532    186.263817
PG28  18560.203018   2557.851669 -18219.748194    369.933258
PG29  -6466.858180 -18364.768984  17985.909805   -504.579113
PG30  24418.369571   1790.103379  10682.013756   -524.386810
PG31 -26022.358627   6482.742622   -124.765330   -174.017505
PG32 -15907.132105   3154.247752 -20856.129523   -108.403287
PJ02 -26133.458519  21734.509770  29902.822319     -2.830556
PJ03 -34546.030151  24228.210019   4983.580402     -1.616918
PR01  11904.118448   4351.853012  22146.359132      7.901376
PR02   5969.456550 -16101.603092  18935.324878    515.939347
PR03  -2948.821533 -25005.483173   4309.251860     55.171556
PR04  -9889.550586 -19880.203714 -12529.077557    137.395149
PR05 -11449.755677  -3868.525465 -22449.021053     91.398043
PR07   3350.763505  25023.657758  -3428.907969     34.025541
PR08  10107.049588  19671.527239  12751.534979    -64.693190
PR09 -13675.379810   6352.123886  20567.268984     50.531706
PR11  19646.009226  11815.002278  11207.324062     40.860358
PR12  24062.374991   4289.095186  -7243.842738     18.000412
PR13  14784.159094  -5396.692103 -20091.565406    -21.077345
PR14  -4435.276708 -12524.541552 -21763.332413     76.674882
PR15 -20009.233009 -11900.226855 -10408.610626     96.733613
PR17   7708.995588 -17114.605076  17260.214103    518.731793
PR18  -6919.653817  -7816.222869  23284.454421    114.040354
PR19 -17745.213128   4265.244980  17815.181695   -185.880775
PR20 -19590.171955  16282.416945   -682.069231    -68.904309
PR21  -6627.835984  16557.848045 -18249.279422   -294.437498
PR22   7707.822325   7068.731871 -23285.261510   -177.788346
PR24  18950.079840 -17013.000911   1407.900901     89.734319
EOF
